{
    "links": {
        "self": "http://www.neowsapp.com/rest/v1/neo/3092397?api_key=iIulBulltgU6a56xZRHN4H3l9WmuAYTsLGpBGhQ2"
    },
    "id": "3092397",
    "neo_reference_id": "3092397",
    "name": "(2001 UC5)",
    "designation": "2001 UC5",
    "nasa_jpl_url": "http://ssd.jpl.nasa.gov/sbdb.cgi?sstr=3092397",
    "absolute_magnitude_h": 21.3,
    "estimated_diameter": {
        "kilometers": {
            "estimated_diameter_min": 0.1460679643,
            "estimated_diameter_max": 0.3266178974
        },
        "meters": {
            "estimated_diameter_min": 146.0679642714,
            "estimated_diameter_max": 326.6178974458
        },
        "miles": {
            "estimated_diameter_min": 0.090762397,
            "estimated_diameter_max": 0.2029508896
        },
        "feet": {
            "estimated_diameter_min": 479.2256199,
            "estimated_diameter_max": 1071.581062656
        }
    },
    "is_potentially_hazardous_asteroid": false,
    "close_approach_data": [
        {
            "close_approach_date": "2001-10-23",
            "close_approach_date_full": "2001-Oct-23 06:34",
            "epoch_date_close_approach": 1003818840000,
            "relative_velocity": {
                "kilometers_per_second": "19.2039457847",
                "kilometers_per_hour": "69134.2048249733",
                "miles_per_hour": "42957.3063258285"
            },
            "miss_distance": {
                "astronomical": "0.0598745809",
                "lunar": "23.2912119701",
                "kilometers": "8957109.769782683",
                "miles": "5565689.9264717054"
            },
            "orbiting_body": "Earth"
        }
    ],
    "orbital_data": {
        "orbit_id": "12",
        "orbit_determination_date": "2017-04-06 09:15:58",
        "first_observation_date": "2001-10-20",
        "last_observation_date": "2001-10-26",
        "data_arc_in_days": 6,
        "observations_used": 70,
        "orbit_uncertainty": "9",
        "minimum_orbit_intersection": ".0598657",
        "jupiter_tisserand_invariant": "2.872",
        "epoch_osculation": "2452206.5",
        "eccentricity": ".6272210772330418",
        "semi_major_axis": "2.743003448804477",
        "inclination": "30.45115035766855",
        "ascending_node_longitude": "28.37403556955643",
        "orbital_period": "1659.349838272987",
        "perihelion_distance": "1.022533870791384",
        "perihelion_argument": "23.95861076140977",
        "aphelion_distance": "4.463473026817569",
        "perihelion_time": "2452224.379223851415",
        "mean_anomaly": "356.1210587194751",
        "mean_motion": ".2169524422738243",
        "equinox": "J2000",
        "orbit_class": {
            "orbit_class_type": "AMO",
            "orbit_class_description": "Near-Earth asteroid orbits similar to that of 1221 Amor",
            "orbit_class_range": "1.017 AU < q (perihelion) < 1.3 AU"
        }
    },
    "is_sentry_object": false
}